{
  "norad_id": 53966,
  "name": "STARLINK-4635",
  "history": [
    {
      "epoch": "2026-03-28T20:24:22.252320Z",
      "apogee_km": 540.6971657696968,
      "perigee_km": 538.7988981169319,
      "latitude_deg": 3.2222068524748553e-06,
      "longitude_deg": 5.821996406050245,
      "height_km": 540.5794600376056,
      "semi_major_axis_km": 6917.885031943314,
      "eccentricity": 0.0001372,
      "inclination_deg": 53.2163,
      "raan_deg": 138.1795,
      "arg_perigee_deg": 86.1246,
      "mean_anomaly_deg": 273.9903,
      "mean_motion_rev_day": 15.08838481
    }
  ]
}