{"fetched_at":"2026-03-29T16:36:15Z","count":15609,"tles":[{"name":"STARLINK-4635","line1":"1 53966U 22125C   26087.85025755  .00000878  00000+0  73240-4 0  9993","line2":"2 53966  53.2163 138.1795 0001372  86.1246 273.9903 15.08838481192219","category":"Starlink"}]}